start=new Date('2022-01-25T00:00:00.000Z').valueOf();
sats=[{"MEAN_MOTION_DDOT":"0.0000000000000","RA_OF_ASC_NODE":"246.8042","COUNTRY_CODE":"US","APOAPSIS":"548.520","INCLINATION":"53.0536","MEAN_ANOMALY":"288.6268","ECCENTRICITY":"0.00018890","MEAN_MOTION":"15.06400727","EPOCH":"2022-01-24T22:04:28.115040","MEAN_MOTION_DOT":"0.00000313","SEMIMAJOR_AXIS":"6925.346","LAUNCH_DATE":"2020-09-03","OBJECT_TYPE":"PAYLOAD","TLE_LINE1":"1 46361U 20062AN  22024.91976985  .00000313  00000-0  39915-4 0  9992","SITE":"AFETR","NORAD_CAT_ID":"46361","MEAN_ELEMENT_THEORY":"SGP4","PERIAPSIS":"545.903","OBJECT_ID":"2020-062AN","PERIOD":"95.592","ARG_OF_PERICENTER":"71.4926","DECAY_DATE":null,"OBJECT_NAME":"STARLINK-1722","EPHEMERIS_TYPE":"0","ELEMENT_SET_NO":"999","CLASSIFICATION_TYPE":"U","TLE_LINE2":"2 46361  53.0536 246.8042 0001889  71.4926 288.6268 15.06400727 78136","TIME_SYSTEM":"UTC","FILE":"3282614","CENTER_NAME":"EARTH","BSTAR":"0.00003991500000","REF_FRAME":"TEME","REV_AT_EPOCH":"7813","GP_ID":"194569623","RCS_SIZE":"LARGE"},{"OBJECT_NAME":"STARLINK-1726","DECAY_DATE":null,"ARG_OF_PERICENTER":"75.0956","PERIOD":"95.592","OBJECT_ID":"2020-062AP","PERIAPSIS":"545.869","RCS_SIZE":"LARGE","GP_ID":"194569873","REV_AT_EPOCH":"7813","REF_FRAME":"TEME","CENTER_NAME":"EARTH","BSTAR":"-0.00002031000000","FILE":"3282614","TIME_SYSTEM":"UTC","TLE_LINE2":"2 46362  53.0532 246.8823 0001954  75.0956 285.0249 15.06397151 78132","EPHEMERIS_TYPE":"0","ELEMENT_SET_NO":"999","CLASSIFICATION_TYPE":"U","EPOCH":"2022-01-24T21:32:37.087008","MEAN_MOTION":"15.06397151","ECCENTRICITY":"0.00019540","MEAN_ANOMALY":"285.0249","INCLINATION":"53.0532","APOAPSIS":"548.576","COUNTRY_CODE":"US","RA_OF_ASC_NODE":"246.8823","MEAN_MOTION_DDOT":"0.0000000000000","MEAN_ELEMENT_THEORY":"SGP4","NORAD_CAT_ID":"46362","TLE_LINE1":"1 46362U 20062AP  22024.89765147 -.00000584  00000-0 -20310-4 0  9997","OBJECT_TYPE":"PAYLOAD","SITE":"AFETR","LAUNCH_DATE":"2020-09-03","SEMIMAJOR_AXIS":"6925.357","MEAN_MOTION_DOT":"-0.00000584"},{"NORAD_CAT_ID":"46363","MEAN_ELEMENT_THEORY":"SGP4","SEMIMAJOR_AXIS":"6925.360","LAUNCH_DATE":"2020-09-03","MEAN_MOTION_DOT":"-0.00000730","OBJECT_TYPE":"PAYLOAD","TLE_LINE1":"1 46363U 20062AQ  22024.89028164 -.00000730  00000-0 -30112-4 0  9993","SITE":"AFETR","ECCENTRICITY":"0.00017660","INCLINATION":"53.0535","MEAN_ANOMALY":"292.2554","EPOCH":"2022-01-24T21:22:00.333696","MEAN_MOTION":"15.06396347","MEAN_MOTION_DDOT":"0.0000000000000","APOAPSIS":"548.448","COUNTRY_CODE":"US","RA_OF_ASC_NODE":"246.9204","RCS_SIZE":"LARGE","GP_ID":"194571124","TLE_LINE2":"2 46363  53.0535 246.9204 0001766  67.8623 292.2554 15.06396347 78136","ELEMENT_SET_NO":"999","CLASSIFICATION_TYPE":"U","EPHEMERIS_TYPE":"0","REF_FRAME":"TEME","REV_AT_EPOCH":"7813","BSTAR":"-0.00003011200000","CENTER_NAME":"EARTH","TIME_SYSTEM":"UTC","FILE":"3282614","OBJECT_NAME":"STARLINK-1739","DECAY_DATE":null,"OBJECT_ID":"2020-062AQ","PERIAPSIS":"546.002","ARG_OF_PERICENTER":"67.8623","PERIOD":"95.592"},{"ARG_OF_PERICENTER":"18.2680","PERIOD":"95.592","OBJECT_ID":"2020-062AR","PERIAPSIS":"541.718","OBJECT_NAME":"STARLINK-1763","DECAY_DATE":null,"REF_FRAME":"TEME","REV_AT_EPOCH":"7841","BSTAR":"0.00005075600000","CENTER_NAME":"EARTH","TIME_SYSTEM":"UTC","FILE":"3282614","TLE_LINE2":"2 46364  53.0524 226.8972 0007928  18.2680 341.8593 15.06401739 78410","CLASSIFICATION_TYPE":"U","ELEMENT_SET_NO":"999","EPHEMERIS_TYPE":"0","RCS_SIZE":"LARGE","GP_ID":"194570868","APOAPSIS":"552.699","COUNTRY_CODE":"US","RA_OF_ASC_NODE":"226.8972","MEAN_MOTION_DDOT":"0.0000000000000","EPOCH":"2022-01-24T21:55:08.813280","MEAN_MOTION":"15.06401739","ECCENTRICITY":"0.00079280","INCLINATION":"53.0524","MEAN_ANOMALY":"341.8593","SITE":"AFETR","TLE_LINE1":"1 46364U 20062AR  22024.91329645  .00000472  00000-0  50756-4 0  9992","OBJECT_TYPE":"PAYLOAD","SEMIMAJOR_AXIS":"6925.343","LAUNCH_DATE":"2020-09-03","MEAN_MOTION_DOT":"0.00000472","MEAN_ELEMENT_THEORY":"SGP4","NORAD_CAT_ID":"46364"},{"CENTER_NAME":"EARTH","BSTAR":"0.00018570000000","REF_FRAME":"TEME","REV_AT_EPOCH":"7812","FILE":"3282614","TIME_SYSTEM":"UTC","TLE_LINE2":"2 46365  53.0529 247.0216 0002042  66.4865 293.6339 15.06413373 78121","EPHEMERIS_TYPE":"0","ELEMENT_SET_NO":"999","CLASSIFICATION_TYPE":"U","RCS_SIZE":"LARGE","GP_ID":"194570123","ARG_OF_PERICENTER":"66.4865","PERIOD":"95.591","OBJECT_ID":"2020-062AS","PERIAPSIS":"545.758","OBJECT_NAME":"STARLINK-1550","DECAY_DATE":null,"TLE_LINE1":"1 46365U 20062AS  22024.86816828  .00002486  00000-0  18570-3 0  9995","OBJECT_TYPE":"PAYLOAD","SITE":"AFETR","SEMIMAJOR_AXIS":"6925.308","LAUNCH_DATE":"2020-09-03","MEAN_MOTION_DOT":"0.00002486","MEAN_ELEMENT_THEORY":"SGP4","NORAD_CAT_ID":"46365","APOAPSIS":"548.587","COUNTRY_CODE":"US","RA_OF_ASC_NODE":"247.0216","MEAN_MOTION_DDOT":"0.0000000000000","EPOCH":"2022-01-24T20:50:09.739392","MEAN_MOTION":"15.06413373","ECCENTRICITY":"0.00020420","MEAN_ANOMALY":"293.6339","INCLINATION":"53.0529"},{"ECCENTRICITY":"0.00039410","MEAN_ANOMALY":"325.6877","INCLINATION":"53.0538","EPOCH":"2022-01-24T07:49:24.469824","MEAN_MOTION":"15.06832740","MEAN_MOTION_DDOT":"0.0000000000000","APOAPSIS":"548.616","COUNTRY_CODE":"US","RA_OF_ASC_NODE":"249.4558","NORAD_CAT_ID":"46366","MEAN_ELEMENT_THEORY":"SGP4","SEMIMAJOR_AXIS":"6924.023","LAUNCH_DATE":"2020-09-03","MEAN_MOTION_DOT":"0.00060730","SITE":"AFETR","TLE_LINE1":"1 46366U 20062AT  22024.32597766  .00060730  00000-0  40134-2 0  9990","OBJECT_TYPE":"PAYLOAD","OBJECT_NAME":"STARLINK-1651","DECAY_DATE":null,"OBJECT_ID":"2020-062AT","PERIAPSIS":"543.159","ARG_OF_PERICENTER":"34.4367","PERIOD":"95.565","RCS_SIZE":"LARGE","GP_ID":"194532148","TLE_LINE2":"2 46366  53.0538 249.4558 0003941  34.4367 325.6877 15.06832740 78045","ELEMENT_SET_NO":"999","CLASSIFICATION_TYPE":"U","EPHEMERIS_TYPE":"0","REV_AT_EPOCH":"7804","REF_FRAME":"TEME","BSTAR":"0.00401340000000","CENTER_NAME":"EARTH","FILE":"3281820","TIME_SYSTEM":"UTC"},{"MEAN_MOTION_DOT":"-0.00000548","LAUNCH_DATE":"2020-09-03","SEMIMAJOR_AXIS":"6925.346","OBJECT_TYPE":"PAYLOAD","TLE_LINE1":"1 46368U 20062AV  22024.92299820 -.00000548  00000-0 -17854-4 0  9996","SITE":"AFETR","NORAD_CAT_ID":"46368","MEAN_ELEMENT_THEORY":"SGP4","MEAN_MOTION_DDOT":"0.0000000000000","COUNTRY_CODE":"US","RA_OF_ASC_NODE":"271.7892","APOAPSIS":"548.501","INCLINATION":"53.0522","MEAN_ANOMALY":"295.6912","ECCENTRICITY":"0.00018630","MEAN_MOTION":"15.06400822","EPOCH":"2022-01-24T22:09:07.044480","CLASSIFICATION_TYPE":"U","ELEMENT_SET_NO":"999","EPHEMERIS_TYPE":"0","TLE_LINE2":"2 46368  53.0522 271.7892 0001863  64.4269 295.6912 15.06400822 77793","TIME_SYSTEM":"UTC","FILE":"3282614","REV_AT_EPOCH":"7779","REF_FRAME":"TEME","CENTER_NAME":"EARTH","BSTAR":"-0.00001785400000","GP_ID":"194570625","RCS_SIZE":"LARGE","PERIAPSIS":"545.921","OBJECT_ID":"2020-062AV","PERIOD":"95.592","ARG_OF_PERICENTER":"64.4269","DECAY_DATE":null,"OBJECT_NAME":"STARLINK-1658"},{"TLE_LINE2":"2 46370  53.0549 271.9595 0001953  59.2796 300.8385 15.06403844 77783","ELEMENT_SET_NO":"999","CLASSIFICATION_TYPE":"U","EPHEMERIS_TYPE":"0","REV_AT_EPOCH":"7778","REF_FRAME":"TEME","BSTAR":"0.00010657000000","CENTER_NAME":"EARTH","TIME_SYSTEM":"UTC","FILE":"3282614","RCS_SIZE":"LARGE","GP_ID":"194571368","OBJECT_ID":"2020-062AX","PERIAPSIS":"545.849","ARG_OF_PERICENTER":"59.2796","PERIOD":"95.592","OBJECT_NAME":"STARLINK-1670","DECAY_DATE":null,"SEMIMAJOR_AXIS":"6925.337","LAUNCH_DATE":"2020-09-03","MEAN_MOTION_DOT":"0.00001306","TLE_LINE1":"1 46370U 20062AX  22024.88614061  .00001306  00000-0  10657-3 0  9996","SITE":"AFETR","OBJECT_TYPE":"PAYLOAD","NORAD_CAT_ID":"46370","MEAN_ELEMENT_THEORY":"SGP4","MEAN_MOTION_DDOT":"0.0000000000000","APOAPSIS":"548.554","COUNTRY_CODE":"US","RA_OF_ASC_NODE":"271.9595","ECCENTRICITY":"0.00019530","INCLINATION":"53.0549","MEAN_ANOMALY":"300.8385","EPOCH":"2022-01-24T21:16:02.548704","MEAN_MOTION":"15.06403844"},{"NORAD_CAT_ID":"46371","MEAN_ELEMENT_THEORY":"SGP4","SEMIMAJOR_AXIS":"6925.326","LAUNCH_DATE":"2020-09-03","MEAN_MOTION_DOT":"0.00000987","TLE_LINE1":"1 46371U 20062AY  22024.87876778  .00000987  00000-0  85146-4 0  9991","OBJECT_TYPE":"PAYLOAD","SITE":"AFETR","ECCENTRICITY":"0.00020070","INCLINATION":"53.0531","MEAN_ANOMALY":"297.7214","EPOCH":"2022-01-24T21:05:25.536192","MEAN_MOTION":"15.06407496","MEAN_MOTION_DDOT":"0.0000000000000","APOAPSIS":"548.580","COUNTRY_CODE":"US","RA_OF_ASC_NODE":"271.9790","RCS_SIZE":"LARGE","GP_ID":"194569624","TLE_LINE2":"2 46371  53.0531 271.9790 0002007  62.3979 297.7214 15.06407496 77783","CLASSIFICATION_TYPE":"U","ELEMENT_SET_NO":"999","EPHEMERIS_TYPE":"0","BSTAR":"0.00008514600000","CENTER_NAME":"EARTH","REF_FRAME":"TEME","REV_AT_EPOCH":"7778","FILE":"3282614","TIME_SYSTEM":"UTC","OBJECT_NAME":"STARLINK-1688","DECAY_DATE":null,"OBJECT_ID":"2020-062AY","PERIAPSIS":"545.801","ARG_OF_PERICENTER":"62.3979","PERIOD":"95.592"},{"MEAN_ELEMENT_THEORY":"SGP4","NORAD_CAT_ID":"46372","SITE":"AFETR","TLE_LINE1":"1 46372U 20062AZ  22024.88797474 -.00003624  00000-0 -22457-3 0  9996","OBJECT_TYPE":"PAYLOAD","MEAN_MOTION_DOT":"-0.00003624","LAUNCH_DATE":"2020-09-03","SEMIMAJOR_AXIS":"6925.365","MEAN_MOTION":"15.06394701","EPOCH":"2022-01-24T21:18:41.017536","INCLINATION":"53.0534","MEAN_ANOMALY":"296.9638","ECCENTRICITY":"0.00016620","COUNTRY_CODE":"US","RA_OF_ASC_NODE":"291.9315","APOAPSIS":"548.381","MEAN_MOTION_DDOT":"0.0000000000000","GP_ID":"194569874","RCS_SIZE":"LARGE","FILE":"3282614","TIME_SYSTEM":"UTC","BSTAR":"-0.00022457000000","CENTER_NAME":"EARTH","REV_AT_EPOCH":"7750","REF_FRAME":"TEME","ELEMENT_SET_NO":"999","CLASSIFICATION_TYPE":"U","EPHEMERIS_TYPE":"0","TLE_LINE2":"2 46372  53.0534 291.9315 0001662  63.1521 296.9638 15.06394701 77505","DECAY_DATE":null,"OBJECT_NAME":"STARLINK-1689","PERIOD":"95.592","ARG_OF_PERICENTER":"63.1521","PERIAPSIS":"546.079","OBJECT_ID":"2020-062AZ"}];
